H1 CPF 01  gfz 2022 12 07 01  8411 terrasarx 
H2 0702601  6201 31698    2022 12 07 00 59 42 2022 12 12 00 00 42   120 1 1  0 0 0
H9
10 0 59920  53262.000000  0     116496.880  -1203623.529   6770941.507
10 0 59920  53382.000000  0    -510829.258  -1856059.981   6603549.568
10 0 59920  53502.000000  0   -1140280.917  -2465113.430   6320120.867
10 0 59920  53622.000000  0   -1760020.090  -3020212.307   5925605.282
10 0 59920  53742.000000  0   -2358193.254  -3511923.943   5426899.671
10 0 59920  53862.000000  0   -2923159.302  -3932119.133   4832735.479
10 0 59920  53982.000000  0   -3443720.416  -4274112.031   4153531.680
10 0 59920  54102.000000  0   -3909347.752  -4532771.374   3401215.067
10 0 59920  54222.000000  0   -4310397.307  -4704601.706   2589012.457
10 0 59920  54342.000000  0   -4638312.928  -4787793.196   1731217.891
10 0 59920  54462.000000  0   -4885811.358  -4782237.222    842936.805
10 0 59920  54582.000000  0   -5047043.593  -4689506.934    -60186.443
10 0 59920  54702.000000  0   -5117728.911  -4512803.654   -962252.363
10 0 59920  54822.000000  0   -5095257.494  -4256870.052  -1847395.965
10 0 59920  54942.000000  0   -4978758.164  -3927871.407  -2700074.928
10 0 59920  55062.000000  0   -4769129.926  -3533249.220  -3505348.105
10 0 59920  55182.000000  0   -4469038.419  -3081552.440  -4249139.308
10 0 59920  55302.000000  0   -4082877.758  -2582250.316  -4918482.287
10 0 59920  55422.000000  0   -3616698.646  -2045531.311  -5501741.836
10 0 59920  55542.000000  0   -3078105.769  -1482093.560  -5988807.875
10 0 59920  55662.000000  0   -2476127.342   -902931.015  -6371260.506
10 0 59920  55782.000000  0   -1821058.797   -319120.002  -6642504.411
10 0 59920  55902.000000  0   -1124284.280    258389.430  -6797870.435
10 0 59920  56022.000000  0    -398081.274    818973.445  -6834686.300
10 0 59920  56142.000000  0     344591.119   1352524.938  -6752317.648
10 0 59920  56262.000000  0    1090316.672   1849630.348  -6552178.498
10 0 59920  56382.000000  0    1825459.501   2301732.889  -6237711.513
10 0 59920  56502.000000  0    2536408.517   2701278.449  -5814334.917
10 0 59920  56622.000000  0    3209826.207   3041841.974  -5289357.745
10 0 59920  56742.000000  0    3832896.548   3318232.275  -4671865.168
10 0 59920  56862.000000  0    4393571.205   3526575.096  -3972573.146
10 0 59920  56982.000000  0    4880807.616   3664370.609  -3203651.902
10 0 59920  57102.000000  0    5284792.474   3730523.947  -2378520.473
10 0 59920  57222.000000  0    5597146.304   3725348.929  -1511616.349
10 0 59920  57342.000000  0    5811104.322   3650542.636   -618142.149
10 0 59920  57462.000000  0    5921667.565   3509131.446    286204.417
10 0 59920  57582.000000  0    5925721.273   3305389.730   1185512.731
10 0 59920  57702.000000  0    5822115.486   3044732.328   2063947.787
10 0 59920  57822.000000  0    5611705.780   2733584.453   2906037.513
10 0 59920  57942.000000  0    5297353.813   2379231.842   3696954.151
10 0 59920  58062.000000  0    4883885.770   1989654.267   4422781.925
10 0 59920  58182.000000  0    4378011.313   1573347.925   5070763.662
10 0 59920  58302.000000  0    3788209.294   1139141.297   5629525.302
10 0 59920  58422.000000  0    3124575.637    696008.201   6089274.685
10 0 59920  58542.000000  0    2398641.646    252882.558   6441965.916
10 0 59920  58662.000000  0    1623169.484   -181519.730   6681433.333
10 0 59920  58782.000000  0     811925.168   -598870.987   6803495.049
10 0 59920  58902.000000  0     -20568.481   -991390.875   6806021.718
10 0 59920  59022.000000  0    -859292.061  -1351990.620   6688970.394
10 0 59920  59142.000000  0   -1688999.826  -1674401.151   6454384.279
10 0 59920  59262.000000  0   -2494494.913  -1953281.627   6106358.073
10 0 59920  59382.000000  0   -3260905.986  -2184307.634   5650972.921
10 0 59920  59502.000000  0   -3973965.780  -2364240.136   5096198.376
10 0 59920  59622.000000  0   -4620282.052  -2490971.645   4451757.565
10 0 59920  59742.000000  0   -5187595.321  -2563548.146   3728960.644
10 0 59920  59862.000000  0   -5665018.296  -2582166.140   2940509.170
10 0 59920  59982.000000  0   -6043253.041  -2548145.921   2100274.445
10 0 59920  60102.000000  0   -6314781.298  -2463882.257   1223051.471
10 0 59920  60222.000000  0   -6474020.630  -2332771.065    324291.237
10 0 59920  60342.000000  0   -6517441.593  -2159114.253   -580178.819
10 0 59920  60462.000000  0   -6443645.182  -1948005.790  -1474443.158
10 0 59920  60582.000000  0   -6253395.198  -1705201.811  -2342787.371
10 0 59920  60702.000000  0   -5949607.240  -1436978.592  -3169980.937
10 0 59920  60822.000000  0   -5537295.221  -1149981.951  -3941548.207
10 0 59920  60942.000000  0   -5023477.481   -851072.021  -4644022.323
10 0 59920  61062.000000  0   -4417045.307   -547166.800  -5265177.385
10 0 59920  61182.000000  0   -3728596.910   -245088.905  -5794234.648
10 0 59920  61302.000000  0   -2970242.067     48581.365  -6222039.386
10 0 59920  61422.000000  0   -2155383.071    327643.381  -6541207.132
10 0 59920  61542.000000  0   -1298475.600    586400.848  -6746239.866
10 0 59920  61662.000000  0    -414773.721    819772.797  -6833610.557
10 0 59920  61782.000000  0     479936.202   1023389.954  -6801815.998
10 0 59920  61902.000000  0    1369609.332   1193673.228  -6651401.001
10 0 59920  62022.000000  0    2238224.413   1327895.566  -6384952.158
10 0 59920  62142.000000  0    3070066.976   1424225.535  -6007057.911
10 0 59920  62262.000000  0    3850009.746   1481751.197  -5524236.500
10 0 59920  62382.000000  0    4563785.678   1500484.533  -4944834.494
10 0 59920  62502.000000  0    5198252.404   1481346.681  -4278894.553
10 0 59920  62622.000000  0    5741640.759   1426133.460  -3537991.161
10 0 59920  62742.000000  0    6183781.880   1337461.496  -2735038.010
10 0 59920  62862.000000  0    6516309.367   1218696.071  -1884068.999
10 0 59920  62982.000000  0    6732830.394   1073862.145   -999993.959
10 0 59920  63102.000000  0    6829059.590    907539.602    -98334.477
10 0 59920  63222.000000  0    6802911.354    724746.095    805054.476
10 0 59920  63342.000000  0    6654549.867    530810.487   1694270.014
10 0 59920  63462.000000  0    6386394.701    331238.433   2553650.961
10 0 59920  63582.000000  0    6003078.444    131575.167   3368062.609
10 0 59920  63702.000000  0    5511360.899    -62731.915   4123170.311
10 0 59920  63822.000000  0    4920000.776   -246465.476   4805695.109
10 0 59920  63942.000000  0    4239590.947   -414764.164   5403649.677
10 0 59920  64062.000000  0    3482356.935   -563238.792   5906546.985
10 0 59920  64182.000000  0    2661928.600   -688074.497   6305579.410
10 0 59920  64302.000000  0    1793088.377   -786118.817   6593767.224
10 0 59920  64422.000000  0     891500.848   -854953.440   6766075.799
10 0 59920  64542.000000  0     -26573.154   -892948.441   6819498.149
10 0 59920  64662.000000  0    -944570.078   -899297.798   6753102.763
10 0 59920  64782.000000  0   -1845921.215   -874036.121   6568048.127
10 0 59920  64902.000000  0   -2714350.065   -818035.460   6267563.353
10 0 59920  65022.000000  0   -3534165.239   -732982.801   5856896.458
10 0 59920  65142.000000  0   -4290546.719   -621338.695   5343229.599
10 0 59920  65262.000000  0   -4969819.620   -486278.117   4735559.919
10 0 59920  65382.000000  0   -5559708.989   -331613.829   4044546.690
10 0 59920  65502.000000  0   -6049570.287   -161704.023   3282327.420
10 0 59920  65622.000000  0   -6430590.646     18654.031   2462306.781
10 0 59920  65742.000000  0   -6695958.216    204342.493   1598920.066
10 0 59920  65862.000000  0   -6840992.974    390049.913    707374.228
10 0 59920  65982.000000  0   -6863235.356    570403.616   -196627.484
10 0 59920  66102.000000  0   -6762489.763    740104.714  -1097171.348
10 0 59920  66222.000000  0   -6540821.320    894061.738  -1978422.148
10 0 59920  66342.000000  0   -6202508.931   1027519.323  -2824907.952
10 0 59920  66462.000000  0   -5753955.319   1136179.890  -3621799.228
10 0 59920  66582.000000  0   -5203552.232   1216313.716  -4355171.589
10 0 59920  66702.000000  0   -4561510.387   1264855.384  -5012246.820
10 0 59920  66822.000000  0   -3839657.671   1279484.521  -5581609.598
10 0 59920  66942.000000  0   -3051211.701   1258689.348  -6053396.441
10 0 59920  67062.000000  0   -2210531.639   1201811.238  -6419455.789
10 0 59920  67182.000000  0   -1332853.925   1109071.379  -6673477.620
10 0 59920  67302.000000  0    -434016.729    981578.307  -6811090.475
10 0 59920  67422.000000  0     469820.188    821316.203  -6829927.361
10 0 59920  67542.000000  0    1362457.756    631114.862  -6729663.508
10 0 59920  67662.000000  0    2227942.449    414600.669  -6512022.913
10 0 59920  67782.000000  0    3050845.352    176129.882  -6180751.399
10 0 59920  67902.000000  0    3816533.548    -79294.711  -5741558.752
10 0 59920  68022.000000  0    4511427.958   -346123.757  -5202029.305
10 0 59920  68142.000000  0    5123246.544   -618375.101  -4571503.511
10 0 59920  68262.000000  0    5641228.710   -889760.662  -3860927.108
10 0 59920  68382.000000  0    6056333.791  -1153823.513  -3082670.254
10 0 59920  68502.000000  0    6361410.333  -1404082.891  -2250318.981
10 0 59920  68622.000000  0    6551331.973  -1634183.731  -1378441.192
10 0 59920  68742.000000  0    6623095.078  -1838046.873   -482330.838
10 0 59920  68862.000000  0    6575875.436  -2010016.219    422264.193
10 0 59920  68982.000000  0    6411042.036  -2144999.482   1319426.093
10 0 59920  69102.000000  0    6132125.796  -2238597.924   2193356.089
10 0 59920  69222.000000  0    5744744.771  -2287222.765   3028661.777
10 0 59920  69342.000000  0    5256487.051  -2288193.665   3810636.555
10 0 59920  69462.000000  0    4676754.334  -2239817.915   4525523.315
10 0 59920  69582.000000  0    4016573.491  -2141447.892   5160758.108
10 0 59920  69702.000000  0    3288378.864  -1993516.757   5705192.163
99
